{
  "type": "FeatureCollection",
  "features": [
    {
      "type": "Feature",
      "properties": {
        "norad_id": 66397,
        "name": "STARLINK-35510",
        "group": "last-30-days",
        "lat": -9.300165832567012,
        "lon": -53.697880095732145,
        "alt_km": 420.9009538975879,
        "timestamp": "2025-12-02T08:59:31.502625+00:00",
        "meta_object_name": "STARLINK-35510",
        "meta_object_id": "2025-257T",
        "meta_epoch": "2025-12-02T04:00:03.998880",
        "meta_mean_motion": 15.49340321,
        "meta_eccentricity": 0.0001339,
        "meta_inclination": 53.1588,
        "meta_ra_of_asc_node": 314.3493,
        "meta_arg_of_pericenter": 84.1086,
        "meta_mean_anomaly": 183.8022,
        "meta_ephemeris_type": 0,
        "meta_classification_type": "U",
        "meta_norad_cat_id": 66397,
        "meta_element_set_no": 999,
        "meta_rev_at_epoch": 479,
        "meta_bstar": -0.0017675,
        "meta_mean_motion_dot": -0.00097642,
        "meta_mean_motion_ddot": 0,
        "tle_line1": "1 66397U 25257T   25336.16671295 -.00097642  00000+0 -17675-2 0  9995",
        "tle_line2": "2 66397  53.1588 314.3493 0001339  84.1086 183.8022 15.49340321  4799"
      },
      "geometry": {
        "type": "Point",
        "coordinates": [
          -53.697880095732145,
          -9.300165832567012
        ]
      }
    },
    {
      "type": "Feature",
      "properties": {
        "norad_id": 66398,
        "name": "STARLINK-35642",
        "group": "last-30-days",
        "lat": -7.774907661051047,
        "lon": -52.52569117809847,
        "alt_km": 420.80280922472775,
        "timestamp": "2025-12-02T08:59:31.502634+00:00",
        "meta_object_name": "STARLINK-35642",
        "meta_object_id": "2025-257U",
        "meta_epoch": "2025-12-02T04:00:03.998880",
        "meta_mean_motion": 15.49345992,
        "meta_eccentricity": 0.000154,
        "meta_inclination": 53.1587,
        "meta_ra_of_asc_node": 314.3446,
        "meta_arg_of_pericenter": 89.0797,
        "meta_mean_anomaly": 180.7506,
        "meta_ephemeris_type": 0,
        "meta_classification_type": "U",
        "meta_norad_cat_id": 66398,
        "meta_element_set_no": 999,
        "meta_rev_at_epoch": 479,
        "meta_bstar": -0.0020775,
        "meta_mean_motion_dot": -0.00114468,
        "meta_mean_motion_ddot": 0,
        "tle_line1": "1 66398U 25257U   25336.16671295 -.00114468  00000+0 -20775-2 0  9997",
        "tle_line2": "2 66398  53.1587 314.3446 0001540  89.0797 180.7506 15.49345992  4796"
      },
      "geometry": {
        "type": "Point",
        "coordinates": [
          -52.52569117809847,
          -7.774907661051047
        ]
      }
    },
    {
      "type": "Feature",
      "properties": {
        "norad_id": 66399,
        "name": "STARLINK-35657",
        "group": "last-30-days",
        "lat": -6.248043807578755,
        "lon": -51.362213589145846,
        "alt_km": 420.6257126247874,
        "timestamp": "2025-12-02T08:59:31.502644+00:00",
        "meta_object_name": "STARLINK-35657",
        "meta_object_id": "2025-257V",
        "meta_epoch": "2025-12-02T04:00:03.998880",
        "meta_mean_motion": 15.49345143,
        "meta_eccentricity": 0.0001572,
        "meta_inclination": 53.1588,
        "meta_ra_of_asc_node": 314.3409,
        "meta_arg_of_pericenter": 91.037,
        "meta_mean_anomaly": 180.7102,
        "meta_ephemeris_type": 0,
        "meta_classification_type": "U",
        "meta_norad_cat_id": 66399,
        "meta_element_set_no": 999,
        "meta_rev_at_epoch": 479,
        "meta_bstar": -0.0019729,
        "meta_mean_motion_dot": -0.001088,
        "meta_mean_motion_ddot": 0,
        "tle_line1": "1 66399U 25257V   25336.16671295 -.00108800  00000+0 -19729-2 0  9998",
        "tle_line2": "2 66399  53.1588 314.3409 0001572  91.0370 180.7102 15.49345143  4792"
      },
      "geometry": {
        "type": "Point",
        "coordinates": [
          -51.362213589145846,
          -6.248043807578755
        ]
      }
    },
    {
      "type": "Feature",
      "properties": {
        "norad_id": 66400,
        "name": "STARLINK-35667",
        "group": "last-30-days",
        "lat": -3.1896070996200536,
        "lon": -49.056662550295854,
        "alt_km": 420.20576122797956,
        "timestamp": "2025-12-02T08:59:31.502654+00:00",
        "meta_object_name": "STARLINK-35667",
        "meta_object_id": "2025-257W",
        "meta_epoch": "2025-12-02T04:00:03.998880",
        "meta_mean_motion": 15.49340979,
        "meta_eccentricity": 0.0001671,
        "meta_inclination": 53.1587,
        "meta_ra_of_asc_node": 314.3326,
        "meta_arg_of_pericenter": 91.6583,
        "meta_mean_anomaly": 183.9222,
        "meta_ephemeris_type": 0,
        "meta_classification_type": "U",
        "meta_norad_cat_id": 66400,
        "meta_element_set_no": 999,
        "meta_rev_at_epoch": 479,
        "meta_bstar": -0.0018118,
        "meta_mean_motion_dot": -0.0010005,
        "meta_mean_motion_ddot": 0,
        "tle_line1": "1 66400U 25257W   25336.16671295 -.00100050  00000+0 -18118-2 0  9991",
        "tle_line2": "2 66400  53.1587 314.3326 0001671  91.6583 183.9222 15.49340979  4794"
      },
      "geometry": {
        "type": "Point",
        "coordinates": [
          -49.056662550295854,
          -3.1896070996200536
        ]
      }
    },
    {
      "type": "Feature",
      "properties": {
        "norad_id": 66401,
        "name": "STARLINK-35668",
        "group": "last-30-days",
        "lat": -1.6313061059647864,
        "lon": -47.88958585270448,
        "alt_km": 419.9320779595446,
        "timestamp": "2025-12-02T08:59:31.502664+00:00",
        "meta_object_name": "STARLINK-35668",
        "meta_object_id": "2025-257X",
        "meta_epoch": "2025-12-02T04:00:03.998880",
        "meta_mean_motion": 15.49448531,
        "meta_eccentricity": 0.0001396,
        "meta_inclination": 53.1586,
        "meta_ra_of_asc_node": 314.3287,
        "meta_arg_of_pericenter": 97.6001,
        "meta_mean_anomaly": 179.8707,
        "meta_ephemeris_type": 0,
        "meta_classification_type": "U",
        "meta_norad_cat_id": 66401,
        "meta_element_set_no": 999,
        "meta_rev_at_epoch": 479,
        "meta_bstar": -0.0047693,
        "meta_mean_motion_dot": -0.00258401,
        "meta_mean_motion_ddot": 0,
        "tle_line1": "1 66401U 25257X   25336.16671295 -.00258401  00000+0 -47693-2 0  9996",
        "tle_line2": "2 66401  53.1586 314.3287 0001396  97.6001 179.8707 15.49448531  4790"
      },
      "geometry": {
        "type": "Point",
        "coordinates": [
          -47.88958585270448,
          -1.6313061059647864
        ]
      }
    },
    {
      "type": "Feature",
      "properties": {
        "norad_id": 66402,
        "name": "STARLINK-35644",
        "group": "last-30-days",
        "lat": -4.718565278482255,
        "lon": -50.206125782802665,
        "alt_km": 420.3884586216627,
        "timestamp": "2025-12-02T08:59:31.502674+00:00",
        "meta_object_name": "STARLINK-35644",
        "meta_object_id": "2025-257Y",
        "meta_epoch": "2025-12-02T04:00:03.998880",
        "meta_mean_motion": 15.49342396,
        "meta_eccentricity": 0.0001526,
        "meta_inclination": 53.1587,
        "meta_ra_of_asc_node": 314.3366,
        "meta_arg_of_pericenter": 90.0134,
        "meta_mean_anomaly": 183.6515,
        "meta_ephemeris_type": 0,
        "meta_classification_type": "U",
        "meta_norad_cat_id": 66402,
        "meta_element_set_no": 999,
        "meta_rev_at_epoch": 479,
        "meta_bstar": -0.0018933,
        "meta_mean_motion_dot": -0.00104474,
        "meta_mean_motion_ddot": 0,
        "tle_line1": "1 66402U 25257Y   25336.16671295 -.00104474  00000+0 -18933-2 0  9992",
        "tle_line2": "2 66402  53.1587 314.3366 0001526  90.0134 183.6515 15.49342396  4791"
      },
      "geometry": {
        "type": "Point",
        "coordinates": [
          -50.206125782802665,
          -4.718565278482255
        ]
      }
    },
    {
      "type": "Feature",
      "properties": {
        "norad_id": 66403,
        "name": "STARLINK-35602",
        "group": "last-30-days",
        "lat": -0.12279424860531135,
        "lon": -46.761925659139706,
        "alt_km": 419.73610896337414,
        "timestamp": "2025-12-02T08:59:31.502688+00:00",
        "meta_object_name": "STARLINK-35602",
        "meta_object_id": "2025-257Z",
        "meta_epoch": "2025-12-02T04:00:03.998880",
        "meta_mean_motion": 15.49337106,
        "meta_eccentricity": 0.0001685,
        "meta_inclination": 53.1587,
        "meta_ra_of_asc_node": 314.3248,
        "meta_arg_of_pericenter": 91.1654,
        "meta_mean_anomaly": 188.2514,
        "meta_ephemeris_type": 0,
        "meta_classification_type": "U",
        "meta_norad_cat_id": 66403,
        "meta_element_set_no": 999,
        "meta_rev_at_epoch": 479,
        "meta_bstar": -0.0017255,
        "meta_mean_motion_dot": -0.00095351,
        "meta_mean_motion_ddot": 0,
        "tle_line1": "1 66403U 25257Z   25336.16671295 -.00095351  00000+0 -17255-2 0  9992",
        "tle_line2": "2 66403  53.1587 314.3248 0001685  91.1654 188.2514 15.49337106  4799"
      },
      "geometry": {
        "type": "Point",
        "coordinates": [
          -46.761925659139706,
          -0.12279424860531135
        ]
      }
    }
  ]
}